{"type": "FeatureCollection", "features": [ {"type": "Feature", "properties": {"norad_id": 32289, "name": "YAOGAN-3", "group": "resource", "lat": -20.509154846041763, "lon": -175.33203817987996, "alt_km": 604.3680815230673, "timestamp": "2025-12-06T22:38:42.391482+00:00", "meta": {"OBJECT_NAME": "YAOGAN-3", "OBJECT_ID": "2007-055A", "EPOCH": "2025-12-06T15:17:59.669952", "MEAN_MOTION": 14.89815432, "ECCENTRICITY": 0.0001514, "INCLINATION": 97.8368, "RA_OF_ASC_NODE": 7.3179, "ARG_OF_PERICENTER": 77.4051, "MEAN_ANOMALY": 282.7336, "EPHEMERIS_TYPE": 0, "CLASSIFICATION_TYPE": "U", "NORAD_CAT_ID": 32289, "ELEMENT_SET_NO": 999, "REV_AT_EPOCH": 97718, "BSTAR": 0.0004986101, "MEAN_MOTION_DOT": 4.732e-05, "MEAN_MOTION_DDOT": 0}, "tle": {"line1": "1 32289U 07055A   25340.63749618  .00004732  00000+0  49861-3 0  9995", "line2": "2 32289  97.8368   7.3179 0001514  77.4051 282.7336 14.89815432977187"}}, "geometry": {"type": "Point", "coordinates": [-175.33203817987996, -20.509154846041763]}}, {"type": "Feature", "properties": {"norad_id": 32376, "name": "COSMO-SKYMED 2", "group": "resource", "lat": -77.63640052374461, "lon": -158.4515378988668, "alt_km": 630.9073050458192, "timestamp": "2025-12-06T22:38:42.391492+00:00", "meta": {"OBJECT_NAME": "COSMO-SKYMED 2", "OBJECT_ID": "2007-059A", "EPOCH": "2025-12-06T14:54:23.119488", "MEAN_MOTION": 14.82154429, "ECCENTRICITY": 0.00015264, "INCLINATION": 97.8813, "RA_OF_ASC_NODE": 162.0369, "ARG_OF_PERICENTER": 86.8899, "MEAN_ANOMALY": 273.2489, "EPHEMERIS_TYPE": 0, "CLASSIFICATION_TYPE": "U", "NORAD_CAT_ID": 32376, "ELEMENT_SET_NO": 999, "REV_AT_EPOCH": 97347, "BSTAR": 0.00014670279, "MEAN_MOTION_DOT": 1.116e-05, "MEAN_MOTION_DDOT": 0}, "tle": {"line1": "1 32376U 07059A   25340.62110092  .00001116  00000+0  14670-3 0  9996", "line2": "2 32376  97.8813 162.0369 0001526  86.8899 273.2489 14.82154429973473"}}, "geometry": {"type": "Point", "coordinates": [-158.4515378988668, -77.63640052374461]}}, {"type": "Feature", "properties": {"norad_id": 32382, "name": "RADARSAT-2", "group": "resource", "lat": -54.545855154237586, "lon": 153.37756595873788, "alt_km": 799.409170710639, "timestamp": "2025-12-06T22:38:42.391503+00:00", "meta": {"OBJECT_NAME": "RADARSAT-2", "OBJECT_ID": "2007-061A", "EPOCH": "2025-12-06T14:49:49.822464", "MEAN_MOTION": 14.29985, "ECCENTRICITY": 0.00010791, "INCLINATION": 98.5798, "RA_OF_ASC_NODE": 345.2971, "ARG_OF_PERICENTER": 91.2642, "MEAN_ANOMALY": 268.8664, "EPHEMERIS_TYPE": 0, "CLASSIFICATION_TYPE": "U", "NORAD_CAT_ID": 32382, "ELEMENT_SET_NO": 999, "REV_AT_EPOCH": 93843, "BSTAR": 8.0552038e-05, "MEAN_MOTION_DOT": 1.64e-06, "MEAN_MOTION_DDOT": 0}, "tle": {"line1": "1 32382U 07061A   25340.61793776  .00000164  00000+0  80552-4 0  9996", "line2": "2 32382  98.5798 345.2971 0001079  91.2642 268.8664 14.29985000938433"}}, "geometry": {"type": "Point", "coordinates": [153.37756595873788, -54.545855154237586]}}, {"type": "Feature", "properties": {"norad_id": 32783, "name": "CARTOSAT-2A", "group": "resource", "lat": 52.45286059036375, "lon": -138.7873619647793, "alt_km": 629.9115410988916, "timestamp": "2025-12-06T22:38:42.391513+00:00", "meta": {"OBJECT_NAME": "CARTOSAT-2A", "OBJECT_ID": "2008-021A", "EPOCH": "2025-12-06T15:34:46.204032", "MEAN_MOTION": 14.78920212, "ECCENTRICITY": 0.00122701, "INCLINATION": 97.7939, "RA_OF_ASC_NODE": 30.6628, "ARG_OF_PERICENTER": 23.8162, "MEAN_ANOMALY": 336.3615, "EPHEMERIS_TYPE": 0, "CLASSIFICATION_TYPE": "U", "NORAD_CAT_ID": 32783, "ELEMENT_SET_NO": 999, "REV_AT_EPOCH": 95034, "BSTAR": 0.00024041243, "MEAN_MOTION_DOT": 1.724e-05, "MEAN_MOTION_DDOT": 0}, "tle": {"line1": "1 32783U 08021A   25340.64914588  .00001724  00000+0  24041-3 0  9990", "line2": "2 32783  97.7939  30.6628 0012270  23.8162 336.3615 14.78920212950342"}}, "geometry": {"type": "Point", "coordinates": [-138.7873619647793, 52.45286059036375]}}, {"type": "Feature", "properties": {"norad_id": 33320, "name": "HUANJING 1A (HJ-1A)", "group": "resource", "lat": -76.83627601989288, "lon": 114.38788701654892, "alt_km": 638.8761478836577, "timestamp": "2025-12-06T22:38:42.391524+00:00", "meta": {"OBJECT_NAME": "HUANJING 1A (HJ-1A)", "OBJECT_ID": "2008-041A", "EPOCH": "2025-12-06T15:00:16.137792", "MEAN_MOTION": 14.83365029, "ECCENTRICITY": 0.00205029, "INCLINATION": 97.6535, "RA_OF_ASC_NODE": 329.1791, "ARG_OF_PERICENTER": 53.6274, "MEAN_ANOMALY": 306.6829, "EPHEMERIS_TYPE": 0, "CLASSIFICATION_TYPE": "U", "NORAD_CAT_ID": 33320, "ELEMENT_SET_NO": 999, "REV_AT_EPOCH": 92985, "BSTAR": 0.00035351491, "MEAN_MOTION_DOT": 2.858e-05, "MEAN_MOTION_DDOT": 0}, "tle": {"line1": "1 33320U 08041A   25340.62518678  .00002858  00000+0  35351-3 0  9993", "line2": "2 33320  97.6535 329.1791 0020502  53.6274 306.6829 14.83365029929854"}}, "geometry": {"type": "Point", "coordinates": [114.38788701654892, -76.83627601989288]}}, {"type": "Feature", "properties": {"norad_id": 33321, "name": "HUANJING 1B (HJ-1B)", "group": "resource", "lat": 46.75831499169862, "lon": 161.401523238793, "alt_km": 595.4250073795083, "timestamp": "2025-12-06T22:38:42.391534+00:00", "meta": {"OBJECT_NAME": "HUANJING 1B (HJ-1B)", "OBJECT_ID": "2008-041B", "EPOCH": "2025-12-06T13:57:16.018560", "MEAN_MOTION": 14.82797156, "ECCENTRICITY": 0.00382619, "INCLINATION": 97.6394, "RA_OF_ASC_NODE": 332.8502, "ARG_OF_PERICENTER": 95.2846, "MEAN_ANOMALY": 265.2736, "EPHEMERIS_TYPE": 0, "CLASSIFICATION_TYPE": "U", "NORAD_CAT_ID": 33321, "ELEMENT_SET_NO": 999, "REV_AT_EPOCH": 92986, "BSTAR": 0.0002969466, "MEAN_MOTION_DOT": 2.381e-05, "MEAN_MOTION_DDOT": 0}, "tle": {"line1": "1 33321U 08041B   25340.58143540  .00002381  00000+0  29695-3 0  9996", "line2": "2 33321  97.6394 332.8502 0038261  95.2846 265.2736 14.82797156929864"}}, "geometry": {"type": "Point", "coordinates": [161.401523238793, 46.75831499169862]}}, {"type": "Feature", "properties": {"norad_id": 33331, "name": "GEOEYE 1", "group": "resource", "lat": 45.89389411503691, "lon": -119.22684567131385, "alt_km": 675.7084497256274, "timestamp": "2025-12-06T22:38:42.391545+00:00", "meta": {"OBJECT_NAME": "GEOEYE 1", "OBJECT_ID": "2008-042A", "EPOCH": "2025-12-06T15:28:48.644544", "MEAN_MOTION": 14.64800067, "ECCENTRICITY": 0.00028522, "INCLINATION": 98.1259, "RA_OF_ASC_NODE": 52.0017, "ARG_OF_PERICENTER": 303.6794, "MEAN_ANOMALY": 56.4137, "EPHEMERIS_TYPE": 0, "CLASSIFICATION_TYPE": "U", "NORAD_CAT_ID": 33331, "ELEMENT_SET_NO": 999, "REV_AT_EPOCH": 92196, "BSTAR": 0.00024072527, "MEAN_MOTION_DOT": 1.237e-05, "MEAN_MOTION_DDOT": 0}, "tle": {"line1": "1 33331U 08042A   25340.64500746  .00001237  00000+0  24073-3 0  9994", "line2": "2 33331  98.1259  52.0017 0002852 303.6794  56.4137 14.64800067921962"}}, "geometry": {"type": "Point", "coordinates": [-119.22684567131385, 45.89389411503691]}}, {"type": "Feature", "properties": {"norad_id": 33396, "name": "THEOS", "group": "resource", "lat": -21.5532211670146, "lon": -144.21788067401204, "alt_km": 830.4624800083038, "timestamp": "2025-12-06T22:38:42.391555+00:00", "meta": {"OBJECT_NAME": "THEOS", "OBJECT_ID": "2008-049A", "EPOCH": "2025-12-06T14:56:03.960384", "MEAN_MOTION": 14.20094544, "ECCENTRICITY": 0.00011075, "INCLINATION": 98.5878, "RA_OF_ASC_NODE": 38.8922, "ARG_OF_PERICENTER": 99.9859, "MEAN_ANOMALY": 260.1443, "EPHEMERIS_TYPE": 0, "CLASSIFICATION_TYPE": "U", "NORAD_CAT_ID": 33396, "ELEMENT_SET_NO": 999, "REV_AT_EPOCH": 89063, "BSTAR": 0.00010097756, "MEAN_MOTION_DOT": 1.73e-06, "MEAN_MOTION_DDOT": 0}, "tle": {"line1": "1 33396U 08049A   25340.62226806  .00000173  00000+0  10098-3 0  9992", "line2": "2 33396  98.5878  38.8922 0001107  99.9859 260.1443 14.20094544890630"}}, "geometry": {"type": "Point", "coordinates": [-144.21788067401204, -21.5532211670146]}}, {"type": "Feature", "properties": {"norad_id": 33412, "name": "COSMO-SKYMED 3", "group": "resource", "lat": -45.66068674027144, "lon": -160.65059884523887, "alt_km": 562.9336867170241, "timestamp": "2025-12-06T22:38:42.391568+00:00", "meta": {"OBJECT_NAME": "COSMO-SKYMED 3", "OBJECT_ID": "2008-054A", "EPOCH": "2025-12-06T14:52:24.872448", "MEAN_MOTION": 15.05264505, "ECCENTRICITY": 0.0015699, "INCLINATION": 97.8455, "RA_OF_ASC_NODE": 190.9086, "ARG_OF_PERICENTER": 194.7101, "MEAN_ANOMALY": 165.367, "EPHEMERIS_TYPE": 0, "CLASSIFICATION_TYPE": "U", "NORAD_CAT_ID": 33412, "ELEMENT_SET_NO": 999, "REV_AT_EPOCH": 92795, "BSTAR": 0.00056171719, "MEAN_MOTION_DOT": 7.988e-05, "MEAN_MOTION_DDOT": 0}, "tle": {"line1": "1 33412U 08054A   25340.61973232  .00007988  00000+0  56172-3 0  9992", "line2": "2 33412  97.8455 190.9086 0015699 194.7101 165.3670 15.05264505927952"}}, "geometry": {"type": "Point", "coordinates": [-160.65059884523887, -45.66068674027144]}}, {"type": "Feature", "properties": {"norad_id": 33446, "name": "YAOGAN-4", "group": "resource", "lat": 46.26231932958142, "lon": -97.26303690707184, "alt_km": 612.5957963326018, "timestamp": "2025-12-06T22:38:42.391583+00:00", "meta": {"OBJECT_NAME": "YAOGAN-4", "OBJECT_ID": "2008-061A", "EPOCH": "2025-12-06T12:43:00.354144", "MEAN_MOTION": 14.82652178, "ECCENTRICITY": 0.00141256, "INCLINATION": 97.9175, "RA_OF_ASC_NODE": 270.6901, "ARG_OF_PERICENTER": 344.238, "MEAN_ANOMALY": 15.8391, "EPHEMERIS_TYPE": 0, "CLASSIFICATION_TYPE": "U", "NORAD_CAT_ID": 33446, "ELEMENT_SET_NO": 999, "REV_AT_EPOCH": 91711, "BSTAR": 0.00035047071, "MEAN_MOTION_DOT": 2.776e-05, "MEAN_MOTION_DDOT": 0}, "tle": {"line1": "1 33446U 08061A   25340.52986521  .00002776  00000+0  35047-3 0  9990", "line2": "2 33446  97.9175 270.6901 0014125 344.2380  15.8391 14.82652178917112"}}, "geometry": {"type": "Point", "coordinates": [-97.26303690707184, 46.26231932958142]}}]}